NORAD_CAT_ID,OBJECT_NAME,OBJECT_TYPE,EPOCH,MEAN_MOTION,ECCENTRICITY,INCLINATION,RA_OF_ASC_NODE,ARG_OF_PERICENTER,MEAN_ANOMALY,BSTAR,MEAN_MOTION_DOT,MEAN_MOTION_DDOT,TLE_LINE0,TLE_LINE1,TLE_LINE2,SEMIMAJOR_AXIS,PERIOD,APOGEE,PERIGEE,DECAYED
53889.0,STARLINK-5031,PAYLOAD,2024-04-19 14:27:12,15.08845583,0.0001541,53.2171,177.703,109.4089,250.707,9.0808e-05,1.158e-05,0.0,0 STARLINK-5031,1 53889U 22119D   24110.60222488  .00001158  00000-0  90808-4 0  9992,2 53889  53.2171 177.7030 0001541 109.4089 250.7070 15.08845583 87655,6917.863,95.437,540.794,538.662,0.0
53889.0,STARLINK-5031,PAYLOAD,2024-04-20 11:07:13,15.08841871,0.0001468,53.2171,173.8366,99.282,260.8338,-9.6395e-06,-4.41e-06,0.0,0 STARLINK-5031,1 53889U 22119D   24111.46334675 -.00000441  00000-0 -96395-5 0  9993,2 53889  53.2171 173.8366 0001468  99.2820 260.8338 15.08841871 87364,6917.875,95.437,540.755,538.724,0.0
53889.0,STARLINK-5031,PAYLOAD,2024-04-21 09:22:38,15.08825382,0.0001498,53.2168,169.6735,99.5453,260.5708,-8.8127e-05,-1.69e-05,0.0,0 STARLINK-5031,1 53889U 22119D   24112.39071985 -.00001690  00000-0 -88127-4 0  9998,2 53889  53.2168 169.6735 0001498  99.5453 260.5708 15.08825382 87920,6917.925,95.438,540.826,538.754,0.0
53889.0,STARLINK-5031,PAYLOAD,2024-04-22 10:48:47,15.08841237,0.0001448,53.2173,164.918,85.8546,274.2611,0.00014189,1.971e-05,0.0,0 STARLINK-5031,1 53889U 22119D   24113.45054872  .00001971  00000-0  14189-3 0  9998,2 53889  53.2173 164.9180 0001448  85.8546 274.2611 15.08841237 87667,6917.877,95.437,540.743,538.74,0.0
53889.0,STARLINK-5031,PAYLOAD,2024-04-22 12:24:10,15.08842548,0.0001577,53.2171,164.6215,104.6758,255.4409,0.00017404,2.483e-05,0.0,0 STARLINK-5031,1 53889U 22119D   24113.51678633  .00002483  00000-0  17404-3 0  9994,2 53889  53.2171 164.6215 0001577 104.6758 255.4409 15.08842548 88099,6917.873,95.437,540.829,538.647,0.0
53889.0,STARLINK-5031,PAYLOAD,2024-04-23 02:42:37,15.08946796,0.0001197,53.2168,161.9457,129.7475,230.3623,-0.0012403,-0.0002003,0.0,0 STARLINK-5031,1 53889U 22119D   24114.11292956 -.00020030  00000-0 -12403-2 0  9994,2 53889  53.2168 161.9457 0001197 129.7475 230.3623 15.08946796 87768,6917.554,95.431,540.247,538.591,0.0
53889.0,STARLINK-5031,PAYLOAD,2024-04-23 10:39:34,15.08845098,0.0001482,53.2168,160.4548,108.8813,251.234,6.6278e-05,7.67e-06,0.0,0 STARLINK-5031,1 53889U 22119D   24114.44414812  .00000767  00000-0  66278-4 0  9991,2 53889  53.2168 160.4548 0001482 108.8813 251.2340 15.08845098 87811,6917.865,95.437,540.755,538.705,0.0
53889.0,STARLINK-5031,PAYLOAD,2024-04-24 02:33:26,15.08840747,0.0001373,53.2166,157.4845,85.2692,274.8457,-2.66e-05,-7.11e-06,0.0,0 STARLINK-5031,1 53889U 22119D   24115.10655698 -.00000711  00000-0 -26600-4 0  9990,2 53889  53.2166 157.4845 0001373  85.2692 274.8457 15.08840747 87914,6917.878,95.438,540.693,538.793,0.0
53889.0,STARLINK-5031,PAYLOAD,2024-04-24 08:54:58,15.08842101,0.0001377,53.2166,156.2952,83.9242,276.1907,-1.9481e-05,-5.98e-06,0.0,0 STARLINK-5031,1 53889U 22119D   24115.37151545 -.00000598  00000-0 -19481-4 0  9993,2 53889  53.2166 156.2952 0001377  83.9242 276.1907 15.08842101 88372,6917.874,95.437,540.692,538.786,0.0
53889.0,STARLINK-5031,PAYLOAD,2024-04-25 08:45:45,15.0883979,0.0001539,53.2168,151.8357,76.7597,283.3567,8.1949e-05,1.016e-05,0.0,0 STARLINK-5031,1 53889U 22119D   24116.36511329  .00001016  00000-0  81949-4 0  9995,2 53889  53.2168 151.8357 0001539  76.7597 283.3567 15.08839790 88100,6917.881,95.438,540.811,538.681,0.0
53889.0,STARLINK-5031,PAYLOAD,2024-04-26 08:36:32,15.0884496,0.0001399,53.2165,147.3748,87.8379,272.2774,0.00010788,1.43e-05,0.0,0 STARLINK-5031,1 53889U 22119D   24117.35870708  .00001430  00000-0  10788-3 0  9996,2 53889  53.2165 147.3748 0001399  87.8379 272.2774 15.08844960 88670,6917.865,95.437,540.698,538.762,0.0
53889.0,STARLINK-5031,PAYLOAD,2024-04-27 02:05:46,15.08848175,0.0001459,53.217,144.1029,89.1901,270.9259,6.9415e-05,8.17e-06,0.0,0 STARLINK-5031,1 53889U 22119D   24118.08734389  .00000817  00000-0  69415-4 0  9991,2 53889  53.2170 144.1029 0001459  89.1901 270.9259 15.08848175 88367,6917.855,95.437,540.73,538.711,0.0
53889.0,STARLINK-5031,PAYLOAD,2024-04-27 08:27:19,15.08844084,0.0001274,53.2152,142.9094,88.9719,271.1419,3.8606e-05,3.27e-06,0.0,0 STARLINK-5031,1 53889U 22119D   24118.35230571  .00000327  00000-0  38606-4 0  9999,2 53889  53.2152 142.9094 0001274  88.9719 271.1419 15.08844084 88821,6917.868,95.437,540.614,538.852,0.0
53889.0,STARLINK-5031,PAYLOAD,2024-04-28 08:18:07,15.08833204,0.0001267,53.2172,138.4546,89.9312,270.1826,-0.00012481,-2.273e-05,0.0,0 STARLINK-5031,1 53889U 22119D   24119.34591848 -.00002273  00000-0 -12481-3 0  9992,2 53889  53.2172 138.4546 0001267  89.9312 270.1826 15.08833204 88550,6917.901,95.438,540.643,538.89,0.0
53889.0,STARLINK-5031,PAYLOAD,2024-04-28 17:50:26,15.08830861,0.0001255,53.2167,136.67,90.143,269.9706,-0.00010165,-1.905e-05,0.0,0 STARLINK-5031,1 53889U 22119D   24119.74336036 -.00001905  00000-0 -10165-3 0  9990,2 53889  53.2167 136.6700 0001255  90.1430 269.9706 15.08830861 89031,6917.908,95.438,540.642,538.905,0.0
53889.0,STARLINK-5031,PAYLOAD,2024-04-29 11:19:40,15.08833079,0.0001144,53.2158,133.3978,88.7349,271.3774,2.6464e-05,1.33e-06,0.0,0 STARLINK-5031,1 53889U 22119D   24120.47199812  .00000133  00000-0  26464-4 0  9991,2 53889  53.2158 133.3978 0001144  88.7349 271.3774 15.08833079 88722,6917.902,95.438,540.558,538.975,0.0
53889.0,STARLINK-5031,PAYLOAD,2024-04-29 17:41:13,15.08834386,0.0001125,53.2158,132.2082,86.5308,273.5812,6.6814e-05,7.76e-06,0.0,0 STARLINK-5031,1 53889U 22119D   24120.73695705  .00000776  00000-0  66814-4 0  9998,2 53889  53.2158 132.2082 0001125  86.5308 273.5812 15.08834386 89186,6917.898,95.438,540.541,538.984,0.0
53889.0,STARLINK-5031,PAYLOAD,2024-04-30 07:59:41,15.08835094,0.0001198,53.216,129.5316,79.8967,280.216,0.0001366,1.887e-05,0.0,0 STARLINK-5031,1 53889U 22119D   24121.33311665  .00001887  00000-0  13660-3 0  9999,2 53889  53.2160 129.5316 0001198  79.8967 280.2160 15.08835094 89272,6917.895,95.438,540.589,538.932,0.0
53889.0,STARLINK-5031,PAYLOAD,2024-04-30 17:31:59,15.08839229,0.0001217,53.2161,127.7478,82.3667,277.7463,0.00014783,2.066e-05,0.0,0 STARLINK-5031,1 53889U 22119D   24121.73055446  .00002066  00000-0  14783-3 0  9992,2 53889  53.2161 127.7478 0001217  82.3667 277.7463 15.08839229 88911,6917.883,95.438,540.59,538.906,0.0
53889.0,STARLINK-5031,PAYLOAD,2024-05-01 04:39:42,15.08835451,0.00013,53.2166,125.6664,84.4061,275.7079,5.0225e-05,5.11e-06,0.0,0 STARLINK-5031,1 53889U 22119D   24122.19424112  .00000511  00000-0  50225-4 0  9998,2 53889  53.2166 125.6664 0001300  84.4061 275.7079 15.08835451 88985,6917.894,95.438,540.659,538.86,0.0
53889.0,STARLINK-5031,PAYLOAD,2024-05-01 09:25:51,15.08840319,0.0001318,53.2165,124.7741,83.6347,276.4795,5.0202e-05,5.11e-06,0.0,0 STARLINK-5031,1 53889U 22119D   24122.39295828  .00000511  00000-0  50202-4 0  9995,2 53889  53.2165 124.7741 0001318  83.6347 276.4795 15.08840319 89430,6917.879,95.438,540.656,538.833,0.0
53889.0,STARLINK-5031,PAYLOAD,2024-05-01 17:22:47,15.08842769,0.0001362,53.2169,123.2879,84.555,275.5598,5.9593e-05,6.61e-06,0.0,0 STARLINK-5031,1 53889U 22119D   24122.72415582  .00000661  00000-0  59593-4 0  9991,2 53889  53.2169 123.2879 0001362  84.5550 275.5598 15.08842769 89066,6917.872,95.437,540.679,538.795,0.0
53889.0,STARLINK-5031,PAYLOAD,2024-05-02 04:30:27,15.08857025,0.0001347,53.2166,121.2067,83.0093,277.1053,0.00011222,1.499e-05,0.0,0 STARLINK-5031,1 53889U 22119D   24123.18782185  .00001499  00000-0  11222-3 0  9994,2 53889  53.2166 121.2067 0001347  83.0093 277.1053 15.08857025 89132,6917.828,95.436,540.625,538.762,0.0
53889.0,STARLINK-5031,PAYLOAD,2024-05-02 06:05:50,15.08858566,0.0001259,53.2155,120.9094,83.2326,276.8809,0.0001276,1.744e-05,0.0,0 STARLINK-5031,1 53889U 22119D   24123.25405940  .00001744  00000-0  12760-3 0  9994,2 53889  53.2155 120.9094 0001259  83.2326 276.8809 15.08858566 89562,6917.824,95.436,540.56,538.818,0.0
53889.0,STARLINK-5031,PAYLOAD,2024-05-03 04:21:15,15.08833691,0.0001368,53.2159,116.7457,89.4312,270.6837,-3.7846e-05,-8.9e-06,0.0,0 STARLINK-5031,1 53889U 22119D   24124.18143300 -.00000890  00000-0 -37846-4 0  9992,2 53889  53.2159 116.7457 0001368  89.4312 270.6837 15.08833691 89280,6917.9,95.438,540.711,538.818,0.0
53889.0,STARLINK-5031,PAYLOAD,2024-05-03 10:42:47,15.08840373,0.0001361,53.2164,115.5556,93.6331,266.4817,-2.9837e-05,-7.63e-06,0.0,0 STARLINK-5031,1 53889U 22119D   24124.44638861 -.00000763  00000-0 -29837-4 0  9992,2 53889  53.2164 115.5556 0001361  93.6331 266.4817 15.08840373 89741,6917.879,95.438,540.686,538.803,0.0
53889.0,STARLINK-5031,PAYLOAD,2024-05-03 17:04:20,15.08838084,9.43e-05,53.2165,114.3654,94.7232,265.3868,-5.0686e-05,-1.094e-05,0.0,0 STARLINK-5031,1 53889U 22119D   24124.71134934 -.00001094  00000-0 -50686-4 0  9998,2 53889  53.2165 114.3654 0000943  94.7232 265.3868 15.08838084 89789,6917.886,95.438,540.404,539.099,0.0
53889.0,STARLINK-5031,PAYLOAD,2024-05-04 08:58:12,15.0883614,0.0001374,53.2163,111.3941,86.145,273.9699,-0.00019582,-3.403e-05,0.0,0 STARLINK-5031,1 53889U 22119D   24125.37375905 -.00003403  00000-0 -19582-3 0  9991,2 53889  53.2163 111.3941 0001374  86.1450 273.9699 15.08836140 89462,6917.892,95.438,540.708,538.807,0.0
53889.0,STARLINK-5031,PAYLOAD,2024-05-05 05:38:13,15.08829295,0.000155,53.2167,107.528,90.6391,269.4779,7.2805e-05,8.71e-06,0.0,0 STARLINK-5031,1 53889U 22119D   24126.23487825  .00000871  00000-0  72805-4 0  9994,2 53889  53.2167 107.5280 0001550  90.6391 269.4779 15.08829295 90014,6917.913,95.438,540.85,538.706,0.0
53889.0,STARLINK-5031,PAYLOAD,2024-05-05 23:07:27,15.08832076,0.0001483,53.217,104.2561,91.0987,269.0175,0.00016032,2.264e-05,0.0,0 STARLINK-5031,1 53889U 22119D   24126.96351659  .00002264  00000-0  16032-3 0  9996,2 53889  53.2170 104.2561 0001483  91.0987 269.0175 15.08832076 90124,6917.905,95.438,540.796,538.744,0.0
